EUTELSAT KONNECT        
1 45027U 20005B   25195.63206654  .00000057  00000+0  00000+0 0  9999
2 45027   0.0582  90.2522 0000407 134.0556 303.2028  1.00266966 20949
EUTELSAT QUANTUM        
1 49056U 21069B   25195.88655591  .00000134  00000+0  00000+0 0  9997
2 49056   0.0134 347.5603 0001887 137.3909 174.8783  1.00270909 14548
EUTELSAT KONNECT VHTS   
1 53765U 22110A   25195.55978943  .00000024  00000+0  00000+0 0  9998
2 53765   0.0524  94.6160 0002580  23.1502  19.1166  1.00269328  3449
EUTELSAT HOTBIRD 13F    
1 54048U 22134A   25195.13351391  .00000095  00000+0  00000+0 0  9993
2 54048   0.0682 285.2579 0001780  78.5224 349.5336  1.00271560  9982
EUTELSAT HOTBIRD 13G    
1 54225U 22146A   25195.93864287  .00000094  00000+0  00000+0 0  9993
2 54225   0.0553 237.6072 0002224 301.2726 105.0514  1.00270037  4089
EUTELSAT 10B            
1 54259U 22157A   25196.14322400  .00000075  00000+0  00000+0 0  9991
2 54259   0.0487  92.8375 0001623  27.0632 234.8862  1.00267255  9675
EUTELSAT 36D            
1 59346U 24059A   25195.94975530  .00000163  00000+0  00000+0 0  9999
2 59346   0.0214  44.8823 0000537 146.9663 118.9726  1.00270534  4757
